[
  {
    "name": "ONEWEB-0193",
    "noradId": "48238",
    "line1": "1 48238U 21031AE  26201.48528017 -.00000143  00000+0 -41904-3 0  9998",
    "line2": "2 48238  87.8963 283.0648 0001911 110.7536 249.3799 13.14502980252683"
  },
  {
    "name": "ONEWEB-0191",
    "noradId": "48239",
    "line1": "1 48239U 21031AF  26201.26800007 -.00000298  00000+0 -83802-3 0  9991",
    "line2": "2 48239  87.8971 283.1090 0001924  95.1696 264.9653 13.14505089252519"
  },
  {
    "name": "ONEWEB-0195",
    "noradId": "48240",
    "line1": "1 48240U 21031AG  26201.24504668 -.00000219  00000+0 -62456-3 0  9990",
    "line2": "2 48240  87.8970 283.1138 0002435  99.5065 260.6340 13.14506414252495"
  },
  {
    "name": "ONEWEB-0201",
    "noradId": "48241",
    "line1": "1 48241U 21031AH  26201.46162506  .00000213  00000+0  54094-3 0  9997",
    "line2": "2 48241  87.8964 283.0845 0001967  90.3369 269.7986 13.14502808252756"
  },
  {
    "name": "ONEWEB-0207",
    "noradId": "48242",
    "line1": "1 48242U 21031AJ  26201.28942736  .00000271  00000+0  69633-3 0  9998",
    "line2": "2 48242  87.8968 283.1058 0001956  91.6763 268.4591 13.14501356252641"
  },
  {
    "name": "ONEWEB-0208",
    "noradId": "48243",
    "line1": "1 48243U 21031AK  26201.27119583  .00000496  00000+0  13025-2 0  9996",
    "line2": "2 48243  87.8951 283.1136 0002730 102.4463 257.6972 13.14500668252659"
  },
  {
    "name": "ONEWEB-0200",
    "noradId": "48244",
    "line1": "1 48244U 21031AL  26201.53920257  .00000097  00000+0  22598-3 0  9997",
    "line2": "2 48244  87.8978 283.0504 0002115  96.4157 263.7214 13.14502329252615"
  },
  {
    "name": "ONEWEB-0217",
    "noradId": "48245",
    "line1": "1 48245U 21031AM  26201.47893335 -.00000174  00000+0 -50473-3 0  9998",
    "line2": "2 48245  87.8975 283.0665 0002438  99.6523 260.4882 13.14502459252553"
  },
  {
    "name": "ONEWEB-0211",
    "noradId": "48767",
    "line1": "1 48767U 21045A   26201.48764876  .00000011  00000+0 -49250-5 0  9992",
    "line2": "2 48767  87.8983 252.4401 0002720 101.6064 258.5372 13.16197577248827"
  },
  {
    "name": "ONEWEB-0223",
    "noradId": "48768",
    "line1": "1 48768U 21045B   26201.43032477  .00000122  00000+0  28970-3 0  9999",
    "line2": "2 48768  87.8985 252.5686 0002328 104.3683 255.7706 13.15548805248774"
  },
  {
    "name": "ONEWEB-0230",
    "noradId": "48769",
    "line1": "1 48769U 21045C   26201.40180362 -.00000181  00000+0 -51572-3 0  9995",
    "line2": "2 48769  87.8979 252.5851 0001893  95.4478 264.6869 13.15548160249033"
  },
  {
    "name": "ONEWEB-0237",
    "noradId": "48770",
    "line1": "1 48770U 21045D   26201.39070742 -.00000067  00000+0 -21201-3 0  9994",
    "line2": "2 48770  87.8977 252.5887 0002349  93.2826 266.8574 13.15549106248758"
  },
  {
    "name": "ONEWEB-0235",
    "noradId": "48771",
    "line1": "1 48771U 21045E   26201.21322144  .00000124  00000+0  29564-3 0  9994",
    "line2": "2 48771  87.8987 252.6130 0002283 107.6821 252.4558 13.15550318248721"
  },
  {
    "name": "ONEWEB-0242",
    "noradId": "48772",
    "line1": "1 48772U 21045F   26201.20690616  .00000143  00000+0  34655-3 0  9994",
    "line2": "2 48772  87.8987 252.6118 0001969 103.2325 256.9026 13.15548818248764"
  },
  {
    "name": "ONEWEB-0241",
    "noradId": "48773",
    "line1": "1 48773U 21045G   26201.19426522  .00000234  00000+0  58808-3 0  9993",
    "line2": "2 48773  87.8975 252.6288 0002384 102.8571 257.2826 13.15540984248678"
  },
  {
    "name": "ONEWEB-0243",
    "noradId": "48774",
    "line1": "1 48774U 21045H   26201.14984129  .00000007  00000+0 -15081-4 0  9997",
    "line2": "2 48774  87.8980 252.6503 0001920 112.5186 247.6148 13.15550975248693"
  },
  {
    "name": "ONEWEB-0222",
    "noradId": "48775",
    "line1": "1 48775U 21045J   26201.13322228 -.00003886  00000+0 -10357-1 0  9990",
    "line2": "2 48775  87.8985 252.6239 0002123  97.6096 262.5276 13.15568745248731"
  },
  {
    "name": "ONEWEB-0244",
    "noradId": "48776",
    "line1": "1 48776U 21045K   26201.15937089 -.00000005  00000+0 -46221-4 0  9992",
    "line2": "2 48776  87.8995 252.6149 0002078 100.4603 259.6762 13.15548908249309"
  },
  {
    "name": "ONEWEB-0247",
    "noradId": "48777",
    "line1": "1 48777U 21045L   26201.38435650 -.00000082  00000+0 -25320-3 0  9996",
    "line2": "2 48777  87.8982 252.5980 0002253 118.8917 241.2440 13.15546415248775"
  },
  {
    "name": "ONEWEB-0245",
    "noradId": "48778",
    "line1": "1 48778U 21045M   26201.15143106  .00000083  00000+0  18532-3 0  9990",
    "line2": "2 48778  87.8990 252.6265 0002216  97.5281 262.6101 13.15549952248712"
  },
  {
    "name": "ONEWEB-0229",
    "noradId": "48779",
    "line1": "1 48779U 21045N   26201.14669463  .00000090  00000+0  20374-3 0  9994",
    "line2": "2 48779  87.8987 252.6252 0001983 100.4340 259.7014 13.15548466248747"
  },
  {
    "name": "ONEWEB-0228",
    "noradId": "48780",
    "line1": "1 48780U 21045P   26201.40826853 -.00000123  00000+0 -36038-3 0  9996",
    "line2": "2 48780  87.8991 252.5676 0002111  98.7847 261.3523 13.15549257248695"
  },
  {
    "name": "ONEWEB-0232",
    "noradId": "48781",
    "line1": "1 48781U 21045Q   26201.15462111  .00000062  00000+0  13126-3 0  9995",
    "line2": "2 48781  87.8988 252.6176 0002188  97.5984 262.5395 13.15547998248983"
  },
  {
    "name": "ONEWEB-0231",
    "noradId": "48782",
    "line1": "1 48782U 21045R   26201.43666395 -.00001258  00000+0 -33763-2 0  9995",
    "line2": "2 48782  87.8981 252.5734 0002189  96.9042 263.2338 13.15553503248710"
  },
  {
    "name": "ONEWEB-0234",
    "noradId": "48783",
    "line1": "1 48783U 21045S   26201.39849880 -.00000119  00000+0 -35002-3 0  9997",
    "line2": "2 48783  87.8991 252.5633 0002637  81.8158 278.3271 13.15547582248846"
  },
  {
    "name": "ONEWEB-0238",
    "noradId": "48784",
    "line1": "1 48784U 21045T   26201.17058091 -.00000034  00000+0 -12380-3 0  9990",
    "line2": "2 48784  87.8997 252.6058 0002352  88.2110 271.9290 13.15548995248713"
  },
  {
    "name": "ONEWEB-0240",
    "noradId": "48785",
    "line1": "1 48785U 21045U   26201.42001344 -.00000066  00000+0 -20898-3 0  9996",
    "line2": "2 48785  87.8988 252.5649 0002364 100.2299 259.9098 13.15549333248770"
  },
  {
    "name": "ONEWEB-0246",
    "noradId": "48786",
    "line1": "1 48786U 21045V   26201.41447849 -.00000044  00000+0 -15090-3 0  9994",
    "line2": "2 48786  87.8988 252.5697 0002016  99.6276 260.5083 13.15548083248643"
  },
  {
    "name": "ONEWEB-0210",
    "noradId": "48787",
    "line1": "1 48787U 21045W   26201.16095332 -.00000069  00000+0 -21762-3 0  9993",
    "line2": "2 48787  87.8989 252.6174 0001989 121.6560 238.4765 13.15548599248650"
  },
  {
    "name": "ONEWEB-0214",
    "noradId": "48788",
    "line1": "1 48788U 21045X   26201.16966180 -.00000090  00000+0 -27270-3 0  9996",
    "line2": "2 48788  87.8990 252.6129 0001747 101.8907 258.2420 13.15546952248626"
  },
  {
    "name": "ONEWEB-0221",
    "noradId": "48789",
    "line1": "1 48789U 21045Y   26201.40497299 -.00000027  00000+0 -10594-3 0  9995",
    "line2": "2 48789  87.8987 252.5743 0002177 101.0647 259.0728 13.15548895248746"
  },
  {
    "name": "ONEWEB-0213",
    "noradId": "48790",
    "line1": "1 48790U 21045Z   26201.16570557 -.00000026  00000+0 -10331-3 0  9997",
    "line2": "2 48790  87.8990 252.6252 0002131 104.6995 255.4372 13.15549260248778"
  },
  {
    "name": "ONEWEB-0212",
    "noradId": "48791",
    "line1": "1 48791U 21045AA  26201.37089857  .00000132  00000+0  31683-3 0  9998",
    "line2": "2 48791  87.8988 252.5783 0002054  96.3721 263.7643 13.15547617248791"
  },
  {
    "name": "ONEWEB-0227",
    "noradId": "48792",
    "line1": "1 48792U 21045AB  26201.21799866  .00000029  00000+0  43384-4 0  9997",
    "line2": "2 48792  87.8987 252.6089 0002080  98.9020 261.2346 13.15547953248729"
  },
  {
    "name": "ONEWEB-0226",
    "noradId": "48793",
    "line1": "1 48793U 21045AC  26201.21166006  .00000079  00000+0  17463-3 0  9995",
    "line2": "2 48793  87.8985 252.6147 0002009 104.7281 255.4073 13.15548051248697"
  },
  {
    "name": "ONEWEB-0224",
    "noradId": "48794",
    "line1": "1 48794U 21045AD  26201.40338780 -.00000095  00000+0 -28675-3 0  9994",
    "line2": "2 48794  87.8977 252.6087 0002938  92.9782 267.1685 13.15548575248642"
  },
  {
    "name": "ONEWEB-0233",
    "noradId": "48795",
    "line1": "1 48795U 21045AE  26201.40798651 -.00000067  00000+0 -21279-3 0  9994",
    "line2": "2 48795  87.8976 252.6150 0002302 101.7328 258.4061 13.15550855248660"
  },
  {
    "name": "ONEWEB-0190",
    "noradId": "48796",
    "line1": "1 48796U 21045AF  26201.39546112 -.00000126  00000+0 -36997-3 0  9995",
    "line2": "2 48796  87.8988 252.5815 0002377 112.6333 247.5049 13.15548804248734"
  },
  {
    "name": "ONEWEB-0236",
    "noradId": "48797",
    "line1": "1 48797U 21045AG  26201.41289525 -.00000044  00000+0 -15009-3 0  9991",
    "line2": "2 48797  87.8975 252.5853 0002086  93.6126 266.5243 13.15548614248622"
  },
  {
    "name": "ONEWEB-0248",
    "noradId": "48798",
    "line1": "1 48798U 21045AH  26201.19739180  .00000018  00000+0  14115-4 0  9991",
    "line2": "2 48798  87.8988 252.6154 0002434 103.8288 256.3113 13.15549136248759"
  },
  {
    "name": "ONEWEB-0225",
    "noradId": "48799",
    "line1": "1 48799U 21045AJ  26201.14352862  .00000162  00000+0  39564-3 0  9999",
    "line2": "2 48799  87.8986 252.6328 0002305 110.4711 249.6667 13.15548992248751"
  },
  {
    "name": "ONEWEB-0215",
    "noradId": "48800",
    "line1": "1 48800U 21045AK  26201.18946576 -.00000002  00000+0 -40332-4 0  9998",
    "line2": "2 48800  87.8986 252.6079 0002506 110.8379 249.3020 13.15549452248633"
  },
  {
    "name": "ONEWEB-0216",
    "noradId": "48801",
    "line1": "1 48801U 21045AL  26201.19898644 -.00000021  00000+0 -90371-4 0  9991",
    "line2": "2 48801  87.8985 252.6199 0001935  96.8612 263.2739 13.15547995248647"
  }
]